OBJECT_NAME,OBJECT_ID,EPOCH,MEAN_MOTION,ECCENTRICITY,INCLINATION,RA_OF_ASC_NODE,ARG_OF_PERICENTER,MEAN_ANOMALY,EPHEMERIS_TYPE,CLASSIFICATION_TYPE,NORAD_CAT_ID,ELEMENT_SET_NO,REV_AT_EPOCH,BSTAR,MEAN_MOTION_DOT,MEAN_MOTION_DDOT
BEIDOU-2 IGSO-5 (C10),2011-073A,2026-06-08T06:57:59.620896,1.00275049,.011364,47.6957,271.6577,221.6704,319.6056,0,U,37948,999,5304,0,-.161E-5,0
LUCH 5A (SDCM/PRN 140),2011-074B,2026-06-07T14:17:18.136320,1.00269830,.00023498,8.7288,73.9491,13.7811,189.5949,0,U,37951,999,5295,0,-.36E-6,0
BEIDOU-2 G5 (C05),2012-008A,2026-06-08T11:56:58.394976,1.00270179,.0009391,3.5513,69.7502,275.9140,149.1477,0,U,38091,999,5228,0,.73E-6,0
BEIDOU-2 M3 (C11),2012-018A,2026-06-08T01:26:58.354368,1.86230161,.0019923,55.7663,305.1829,274.8971,84.8667,0,U,38250,999,9577,0,-.55E-6,0
BEIDOU-2 M4 (C12),2012-018B,2026-06-07T23:49:27.858720,1.86229806,.00111023,55.6665,304.3996,277.5873,82.2781,0,U,38251,999,9577,0,-.55E-6,0
SES-5 (EGNOS/PRN 136),2012-036A,2026-06-08T08:16:22.987200,1.00274146,.0002125,0.0523,307.6899,130.2729,307.8574,0,U,38652,999,4436,0,.5E-6,0
BEIDOU-2 M6 (C14),2012-050B,2026-06-07T03:58:20.068320,1.86230975,.00138872,56.5356,63.2259,355.8219,4.1945,0,U,38775,999,9312,0,-.39E-6,0
GSAT-10 (GAGAN/PRN 128),2012-051B,2026-06-07T03:33:22.199040,1.00271795,.0008003,0.0171,262.4199,186.5141,302.9972,0,U,38779,999,4999,0,-.151E-5,0
GPS BIIF-3  (PRN 24),2012-053A,2026-06-08T08:12:31.840416,2.00567341,.0179803,53.5844,143.9616,65.6346,296.2298,0,U,38833,999,9926,0,.102E-5,0
GSAT0103 (GALILEO-FM3),2012-055A,2026-06-05T03:46:28.790688,1.70473498,.00051664,55.7989,101.8756,302.6849,57.2312,0,U,38857,999,8480,0,.18E-6,0
BEIDOU-2 G6 (C02),2012-059A,2026-06-08T08:38:41.920224,1.00274552,.0010225,4.3982,73.6161,324.8285,71.9796,0,U,38953,999,4982,0,-.16E-5,0
LUCH 5B (SDCM/PRN 125),2012-061A,2026-06-07T23:37:00.003648,1.00273999,.00018301,10.4610,49.9704,137.7633,46.5991,0,U,38977,999,4951,0,-.125E-5,0
COSMOS 2485 (747),2013-019A,2026-06-06T02:48:31.416192,2.13103501,.00234828,65.4139,73.9758,234.9271,124.8751,0,U,39155,999,10204,0,-.7E-7,0
GPS BIIF-4  (PRN 27),2013-023A,2026-06-07T17:02:37.851648,2.00563517,.0141597,54.5116,269.3599,50.9983,310.2747,0,U,39166,999,9569,0,-.32E-6,0
IRNSS-1A,2013-034A,2026-05-22T20:37:38.469792,1.00280263,.00166187,35.6649,64.2334,185.3754,355.4646,0,U,39199,999,4711,0,.59E-6,0
GPS BIIF-5  (PRN 30),2014-008A,2026-06-08T05:02:50.237088,2.00559228,.0084235,53.6532,149.6858,231.1273,128.1246,0,U,39533,999,8950,0,.106E-5,0
ASTRA 5B (EGNOS/PRN 123),2014-011B,2026-06-08T08:21:22.509216,1.00270033,.0002106,0.0560,318.3903,106.7676,340.4272,0,U,39617,999,4457,0,.153E-5,0
COSMOS 2492 (754),2014-012A,2026-06-08T10:07:59.243808,2.13103560,.0010512,65.3035,314.2341,326.2439,33.6874,0,U,39620,999,9505,0,-.3E-6,0
IRNSS-1B,2014-017A,2026-05-19T20:39:38.653920,1.00280229,.00242269,28.9733,240.8911,185.2284,176.5740,0,U,39635,999,4451,0,.103E-5,0
LUCH 5V (SDCM/PRN 141),2014-023A,2026-06-08T03:33:46.315872,1.00267721,.00028344,5.1103,69.8404,31.0907,303.7417,0,U,39727,999,4426,0,-.253E-5,0
GPS BIIF-6  (PRN 06),2014-026A,2026-06-07T23:41:28.922784,2.00561693,.003825,56.5029,331.8757,326.7038,33.0643,0,U,39741,999,8835,0,-.57E-6,0
COSMOS 2500 (755),2014-032A,2026-06-05T07:22:31.262592,2.13106228,.00069216,65.2399,314.0875,182.6987,177.2913,0,U,40001,999,9320,0,-.32E-6,0
GPS BIIF-7  (PRN 09),2014-045A,2026-06-08T01:53:28.762368,2.00557813,.0032926,55.3475,88.8279,118.3741,241.9535,0,U,40105,999,8589,0,.5E-7,0
GSAT0201 (GALILEO 5),2014-050A,2026-06-08T06:06:00.790848,1.85520056,.1673173,48.8853,273.8028,179.0434,181.3649,0,U,40128,999,7815,0,-.52E-6,0
GSAT0202 (GALILEO 6),2014-050B,2026-06-07T10:21:46.001952,1.85520607,.16743536,48.9030,272.9219,179.7431,180.3996,0,U,40129,999,8030,0,-.5E-6,0
IRNSS-1C,2014-061A,2026-06-08T08:38:41.920224,1.00270724,.0022633,6.4962,89.0956,1.4301,18.9194,0,U,40269,999,4260,0,-.146E-5,0
GPS BIIF-8  (PRN 03),2014-068A,2026-06-07T22:47:13.606656,2.00575653,.0066828,56.9813,31.3107,70.2442,290.5289,0,U,40294,999,8501,0,-.65E-6,0
COSMOS 2501 (702K),2014-075A,2026-06-07T10:42:38.551392,2.13101441,.00224534,63.6157,190.7092,212.1343,147.7942,0,U,40315,999,8964,0,.89E-6,0
GPS BIIF-9  (PRN 26),2015-013A,2026-06-08T14:04:05.839680,2.00551984,.0109392,53.1681,204.5335,40.1405,320.7390,0,U,40534,999,8165,0,.71E-6,0
GSAT0203 (GALILEO 7),2015-017A,2026-06-07T19:51:37.128384,1.70476158,.00020888,56.7903,341.8507,280.9865,79.0049,0,U,40544,999,6904,0,-.63E-6,0
GSAT0204 (GALILEO 8),2015-017B,2026-06-05T03:36:30.892320,1.70475724,.0001822,56.7982,341.9422,253.1460,106.8459,0,U,40545,999,3204,0,-.69E-6,0
